IRIDIUM 39              
1 25042U 97069D   25300.13941841  .00000789  00000+0  20086-3 0  9997
2 25042  86.3932 154.6163 0016178 221.2422 138.7562 14.49406972468073
IRIDIUM 38              
1 25043U 97069E   25300.22572862  .00000571  00000+0  18153-3 0  9992
2 25043  86.4013 177.6594 0003529  56.0394 304.1139 14.38251950464938
IRIDIUM 42              
1 25077U 97077A   25300.18539462  .00000571  00000+0  18814-3 0  9996
2 25077  86.4024 184.0015 0002784  74.1621 285.9883 14.36479102460143
IRIDIUM 44              
1 25078U 97077B   25300.13079746  .00000571  00000+0  17392-3 0  9996
2 25078  86.3997 165.6215 0001683  27.5926 332.5362 14.40373516462696
IRIDIUM 45              
1 25104U 97082A   25300.16260047  .00024788  00000+0  76356-3 0  9992
2 25104  86.3575 343.5735 0104080 193.9025 165.9355 15.28228170472159
IRIDIUM 24              
1 25105U 97082B   25300.28012187  .00000697  00000+0  20543-3 0  9996
2 25105  86.3952  24.2534 0011483  12.4366 347.7115 14.42261186462259
IRIDIUM 51              
1 25262U 98018A   25300.17964642  .00060057  00000+0  87153-3 0  9996
2 25262  86.3797 349.9607 0067614  99.5979 261.2930 15.52891543467406
IRIDIUM 57              
1 25273U 98019B   25300.15563708  .00000602  00000+0  20054-3 0  9992
2 25273  86.3916  89.9301 0002100  87.4828 272.6609 14.35994794443721
